*******************************************************************************
Ephemeris / WWW_USER Fri Mar  7 11:18:59 2025 Pasadena, USA      / Horizons    
*******************************************************************************
Target body name: (2018 VC)                       {source: JPL#21}
Center body name: Earth (399)                     {source: DE441}
Center-site name: Mauna Kea
*******************************************************************************
Start time      : A.D. 2018-Aug-22 04:55:00.0000 UT      
Stop  time      : A.D. 2018-Aug-22 15:54:00.0000 UT      
Step-size       : 1 minutes
*******************************************************************************
Target pole/equ : undefined
Target radii    : undefined                                                    
Center geodetic : 204.5278, 19.8260847, 4.21024   {E-lon(deg),Lat(deg),Alt(km)}
Center cylindric: 204.5278, 6006.35451, 2151.0229 {E-lon(deg),Dxy(km),Dz(km)}
Center pole/equ : ITRF93                          {East-longitude positive}
Center radii    : 6378.137, 6378.137, 6356.752 km {Equator_a, b, pole_c}       
Target primary  : Sun
Vis. interferer : MOON (R_eq= 1737.400) km        {source: DE441}
Rel. light bend : Sun                             {source: DE441}
Rel. lght bnd GM: 1.3271E+11 km^3/s^2                                          
Small-body perts: Yes                             {source: SB441-N16}
Atmos refraction: NO (AIRLESS)
RA format       : HMS
Time format     : CAL 
Calendar mode   : Mixed Julian/Gregorian
RTS-only print  : NO       
EOP file        : eop.250306.p250602                                           
EOP coverage    : DATA-BASED 1962-JAN-20 TO 2025-MAR-06. PREDICTS-> 2025-JUN-01
Units conversion: 1 au= 149597870.700 km, c= 299792.458 km/s, 1 day= 86400.0 s 
Table cut-offs 1: Elevation (-90.0deg=NO ),Airmass (>38.000=NO), Daylight (YES)
Table cut-offs 2: Solar elongation (  0.0,180.0=NO ),Local Hour Angle( 0.0=NO )
Table cut-offs 3: RA/DEC angular rate (     0.0=NO )                           
*******************************************************************************
Initial IAU76/J2000 heliocentric ecliptic osculating elements (au, days, deg.):
  EPOCH=  2458962.5 ! 2020-Apr-23.00 (TDB)         Residual RMS= .087367       
   EC= .1691367762722357   QR= .9358500167919792   TP= 2458809.0997793972      
   OM= 36.58853997425776   W=  304.3228784920618   IN= 3.701146998496158       
  Equivalent ICRF heliocentric cartesian coordinates (au, au/d):
   X=-6.479543737333916E-01  Y= 9.538692942598190E-01  Z= 5.016232001756915E-01
  VX=-1.316843360643849E-02 VY=-5.467047892625660E-03 VZ=-2.149198049185293E-03
Asteroid physical parameters (km, seconds, rotational period in hours):        
   GM= n.a.                RAD= n.a.               ROTPER= n.a.                
   H= 26.34                G= .150                 B-V= n.a.                   
                           ALBEDO= n.a.            STYP= n.a.                  
*******************************************************************************
 Date__(UT)__HR:MN     R.A._________(ICRF)_________DEC
******************************************************
$$SOE
 2018-Aug-22 13:07     13 32 07.192455 -25 44 37.68156
 2018-Aug-22 13:08     13 32 07.280021 -25 44 38.49243
 2018-Aug-22 13:09     13 32 07.367597 -25 44 39.30360
 2018-Aug-22 13:10     13 32 07.455183 -25 44 40.11510
 2018-Aug-22 13:11     13 32 07.542779 -25 44 40.92690
 2018-Aug-22 13:12     13 32 07.630385 -25 44 41.73901
 2018-Aug-22 13:13     13 32 07.718000 -25 44 42.55144
 2018-Aug-22 13:14     13 32 07.805624 -25 44 43.36419
 2018-Aug-22 13:15     13 32 07.893258 -25 44 44.17724
 2018-Aug-22 13:16     13 32 07.980899 -25 44 44.99062
 2018-Aug-22 13:17     13 32 08.068550 -25 44 45.80430
 2018-Aug-22 13:18     13 32 08.156208 -25 44 46.61830
 2018-Aug-22 13:19     13 32 08.243875 -25 44 47.43261
 2018-Aug-22 13:20     13 32 08.331549 -25 44 48.24724
 2018-Aug-22 13:21     13 32 08.419231 -25 44 49.06219
 2018-Aug-22 13:22     13 32 08.506920 -25 44 49.87745
 2018-Aug-22 13:23     13 32 08.594616 -25 44 50.69302
 2018-Aug-22 13:24     13 32 08.682319 -25 44 51.50891
 2018-Aug-22 13:25     13 32 08.770028 -25 44 52.32512
 2018-Aug-22 13:26     13 32 08.857744 -25 44 53.14164
 2018-Aug-22 13:27     13 32 08.945466 -25 44 53.95848
 2018-Aug-22 13:28     13 32 09.033193 -25 44 54.77564
 2018-Aug-22 13:29     13 32 09.120927 -25 44 55.59311
 2018-Aug-22 13:30     13 32 09.208665 -25 44 56.41090
 2018-Aug-22 13:31     13 32 09.296409 -25 44 57.22900
 2018-Aug-22 13:32     13 32 09.384158 -25 44 58.04742
 2018-Aug-22 13:33     13 32 09.471912 -25 44 58.86616
 2018-Aug-22 13:34     13 32 09.559669 -25 44 59.68522
 2018-Aug-22 13:35     13 32 09.647432 -25 45 00.50459
 2018-Aug-22 13:36     13 32 09.735198 -25 45 01.32429
 2018-Aug-22 13:37     13 32 09.822967 -25 45 02.14430
 2018-Aug-22 13:38     13 32 09.910741 -25 45 02.96462
 2018-Aug-22 13:39     13 32 09.998517 -25 45 03.78527
 2018-Aug-22 13:40     13 32 10.086297 -25 45 04.60623
 2018-Aug-22 13:41     13 32 10.174079 -25 45 05.42751
 2018-Aug-22 13:42     13 32 10.261864 -25 45 06.24911
 2018-Aug-22 13:43     13 32 10.349651 -25 45 07.07103
 2018-Aug-22 13:44     13 32 10.437441 -25 45 07.89326
 2018-Aug-22 13:45     13 32 10.525232 -25 45 08.71582
 2018-Aug-22 13:46     13 32 10.613024 -25 45 09.53869
 2018-Aug-22 13:47     13 32 10.700819 -25 45 10.36188
 2018-Aug-22 13:48     13 32 10.788614 -25 45 11.18539
 2018-Aug-22 13:49     13 32 10.876410 -25 45 12.00922
 2018-Aug-22 13:50     13 32 10.964206 -25 45 12.83337
 2018-Aug-22 13:51     13 32 11.052003 -25 45 13.65783
 2018-Aug-22 13:52     13 32 11.139801 -25 45 14.48262
 2018-Aug-22 13:53     13 32 11.227598 -25 45 15.30772
 2018-Aug-22 13:54     13 32 11.315395 -25 45 16.13314
 2018-Aug-22 13:55     13 32 11.403191 -25 45 16.95888
 2018-Aug-22 13:56     13 32 11.490987 -25 45 17.78494
 2018-Aug-22 13:57     13 32 11.578781 -25 45 18.61132
 2018-Aug-22 13:58     13 32 11.666574 -25 45 19.43801
 2018-Aug-22 13:59     13 32 11.754366 -25 45 20.26503
 2018-Aug-22 14:00     13 32 11.842156 -25 45 21.09236
 2018-Aug-22 14:01     13 32 11.929944 -25 45 21.92001
 2018-Aug-22 14:02     13 32 12.017730 -25 45 22.74798
 2018-Aug-22 14:03     13 32 12.105513 -25 45 23.57627
 2018-Aug-22 14:04     13 32 12.193294 -25 45 24.40488
 2018-Aug-22 14:05     13 32 12.281072 -25 45 25.23380
 2018-Aug-22 14:06     13 32 12.368846 -25 45 26.06305
 2018-Aug-22 14:07     13 32 12.456617 -25 45 26.89261
 2018-Aug-22 14:08     13 32 12.544385 -25 45 27.72249
 2018-Aug-22 14:09     13 32 12.632149 -25 45 28.55269
 2018-Aug-22 14:10     13 32 12.719908 -25 45 29.38321
 2018-Aug-22 14:11     13 32 12.807663 -25 45 30.21404
 2018-Aug-22 14:12     13 32 12.895414 -25 45 31.04519
 2018-Aug-22 14:13     13 32 12.983160 -25 45 31.87666
 2018-Aug-22 14:14     13 32 13.070900 -25 45 32.70845
 2018-Aug-22 14:15     13 32 13.158636 -25 45 33.54056
 2018-Aug-22 14:16     13 32 13.246366 -25 45 34.37298
 2018-Aug-22 14:17     13 32 13.334090 -25 45 35.20572
 2018-Aug-22 14:18     13 32 13.421808 -25 45 36.03877
 2018-Aug-22 14:19     13 32 13.509520 -25 45 36.87215
 2018-Aug-22 14:20     13 32 13.597225 -25 45 37.70584
 2018-Aug-22 14:21     13 32 13.684923 -25 45 38.53985
 2018-Aug-22 14:22     13 32 13.772615 -25 45 39.37417
 2018-Aug-22 14:23     13 32 13.860300 -25 45 40.20881
 2018-Aug-22 14:24     13 32 13.947977 -25 45 41.04377
 2018-Aug-22 14:25     13 32 14.035646 -25 45 41.87904
 2018-Aug-22 14:26     13 32 14.123307 -25 45 42.71463
 2018-Aug-22 14:27     13 32 14.210961 -25 45 43.55053
 2018-Aug-22 14:28     13 32 14.298606 -25 45 44.38675
 2018-Aug-22 14:29     13 32 14.386242 -25 45 45.22328
 2018-Aug-22 14:30     13 32 14.473869 -25 45 46.06013
 2018-Aug-22 14:31     13 32 14.561488 -25 45 46.89730
 2018-Aug-22 14:32     13 32 14.649097 -25 45 47.73477
 2018-Aug-22 14:33     13 32 14.736696 -25 45 48.57257
 2018-Aug-22 14:34     13 32 14.824286 -25 45 49.41067
 2018-Aug-22 14:35     13 32 14.911866 -25 45 50.24910
 2018-Aug-22 14:36     13 32 14.999435 -25 45 51.08783
 2018-Aug-22 14:37     13 32 15.086994 -25 45 51.92688
 2018-Aug-22 14:38     13 32 15.174542 -25 45 52.76624
 2018-Aug-22 14:39     13 32 15.262080 -25 45 53.60591
 2018-Aug-22 14:40     13 32 15.349606 -25 45 54.44590
 2018-Aug-22 14:41     13 32 15.437121 -25 45 55.28620
 2018-Aug-22 14:42     13 32 15.524624 -25 45 56.12681
 2018-Aug-22 14:43     13 32 15.612115 -25 45 56.96773
 2018-Aug-22 14:44     13 32 15.699594 -25 45 57.80896
 2018-Aug-22 14:45     13 32 15.787060 -25 45 58.65051
 2018-Aug-22 14:46     13 32 15.874514 -25 45 59.49237
 2018-Aug-22 14:47     13 32 15.961956 -25 46 00.33453
 2018-Aug-22 14:48 A   13 32 16.049384 -25 46 01.17701
 2018-Aug-22 14:49 A   13 32 16.136799 -25 46 02.01979
 2018-Aug-22 14:50 A   13 32 16.224200 -25 46 02.86289
 2018-Aug-22 14:51 A   13 32 16.311588 -25 46 03.70630
 2018-Aug-22 14:52 A   13 32 16.398962 -25 46 04.55001
 2018-Aug-22 14:53 A   13 32 16.486321 -25 46 05.39403
 2018-Aug-22 14:54 A   13 32 16.573666 -25 46 06.23836
 2018-Aug-22 14:55 A   13 32 16.660997 -25 46 07.08300
 2018-Aug-22 14:56 A   13 32 16.748312 -25 46 07.92795
 2018-Aug-22 14:57 A   13 32 16.835612 -25 46 08.77320
 2018-Aug-22 14:58 A   13 32 16.922897 -25 46 09.61876
 2018-Aug-22 14:59 A   13 32 17.010167 -25 46 10.46463
 2018-Aug-22 15:00 A   13 32 17.097420 -25 46 11.31080
 2018-Aug-22 15:01 A   13 32 17.184658 -25 46 12.15728
 2018-Aug-22 15:02 A   13 32 17.271879 -25 46 13.00406
 2018-Aug-22 15:03 A   13 32 17.359084 -25 46 13.85115
 2018-Aug-22 15:04 A   13 32 17.446272 -25 46 14.69854
 2018-Aug-22 15:05 A   13 32 17.533443 -25 46 15.54624
 2018-Aug-22 15:06 A   13 32 17.620597 -25 46 16.39424
 2018-Aug-22 15:07 A   13 32 17.707734 -25 46 17.24254
 2018-Aug-22 15:08 A   13 32 17.794853 -25 46 18.09114
 2018-Aug-22 15:09 A   13 32 17.881954 -25 46 18.94005
